ONEWEB-0311             
1 49097U 21075Y   25361.17628833  .00000048  00000+0  90856-4 0  9992
2 49097  87.9104  40.0528 0001996 108.1732 251.9618 13.17650432210979
ONEWEB-0312             
1 49098U 21075Z   25361.11555484  .00000001  00000+0 -30312-4 0  9999
2 49098  87.9098  40.0892 0001630 109.3291 250.8017 13.17649103210945
ONEWEB-0313             
1 49099U 21075AA  25361.19641674  .00000063  00000+0  12864-3 0  9993
2 49099  87.9093  40.0802 0001820 101.5383 258.5953 13.17648980210945
ONEWEB-0314             
1 49100U 21075AB  25361.16280352  .00000007  00000+0 -14708-4 0  9994
2 49100  87.9107  40.0414 0001654 111.2014 248.9294 13.17648616210911
ONEWEB-0315             
1 49101U 21075AC  25360.98875245  .00000501  00000+0  13572-2 0  9999
2 49101  87.8930  24.8414 0002060 102.1602 257.9758 13.12441423212581
ONEWEB-0316             
1 49102U 21075AD  25361.29859828  .00000047  00000+0  85801-4 0  9995
2 49102  87.9175   9.6012 0001838  93.0384 267.0959 13.18687212214554
ONEWEB-0317             
1 49103U 21075AE  25361.13638874  .00000016  00000+0  84621-5 0  9991
2 49103  87.8916  24.8306 0001386  72.6063 287.5217 13.11889402212625
ONEWEB-0318             
1 49104U 21075AF  25361.29529868  .00000027  00000+0  35710-4 0  9997
2 49104  87.9177   9.5894 0001907  98.4287 261.7061 13.18686840214510
